[{"OBJECT_NAME":"ONEWEB-0599","OBJECT_ID":"2023-004R","EPOCH":"2026-05-29T00:58:49.580832","MEAN_MOTION":13.17648441,"ECCENTRICITY":0.0001672,"INCLINATION":87.9149,"RA_OF_ASC_NODE":9.6723,"ARG_OF_PERICENTER":79.0359,"MEAN_ANOMALY":281.096,"EPHEMERIS_TYPE":0,"CLASSIFICATION_TYPE":"U","NORAD_CAT_ID":55155,"ELEMENT_SET_NO":999,"REV_AT_EPOCH":16496,"BSTAR":-0.00049245,"MEAN_MOTION_DOT":-1.78e-06,"MEAN_MOTION_DDOT":0.0},{"OBJECT_NAME":"ONEWEB-0614","OBJECT_ID":"2023-004S","EPOCH":"2026-05-29T01:56:36.346272","MEAN_MOTION":13.11418623,"ECCENTRICITY":0.0002012,"INCLINATION":87.8907,"RA_OF_ASC_NODE":24.8793,"ARG_OF_PERICENTER":85.0927,"MEAN_ANOMALY":275.043,"EPHEMERIS_TYPE":0,"CLASSIFICATION_TYPE":"U","NORAD_CAT_ID":55156,"ELEMENT_SET_NO":999,"REV_AT_EPOCH":16333,"BSTAR":-0.00040867999999999997,"MEAN_MOTION_DOT":-1.32e-06,"MEAN_MOTION_DDOT":0.0},{"OBJECT_NAME":"ONEWEB-0616","OBJECT_ID":"2023-004T","EPOCH":"2026-05-29T01:59:36.251808","MEAN_MOTION":13.17649811,"ECCENTRICITY":0.0001691,"INCLINATION":87.9151,"RA_OF_ASC_NODE":9.6672,"ARG_OF_PERICENTER":53.8917,"MEAN_ANOMALY":306.237,"EPHEMERIS_TYPE":0,"CLASSIFICATION_TYPE":"U","NORAD_CAT_ID":55157,"ELEMENT_SET_NO":999,"REV_AT_EPOCH":16518,"BSTAR":6.4574e-05,"MEAN_MOTION_DOT":3.8e-07,"MEAN_MOTION_DDOT":0.0},{"OBJECT_NAME":"ONEWEB-0617","OBJECT_ID":"2023-004U","EPOCH":"2026-05-29T01:39:30.716064","MEAN_MOTION":13.11416454,"ECCENTRICITY":0.0002096,"INCLINATION":87.8913,"RA_OF_ASC_NODE":24.8722,"ARG_OF_PERICENTER":91.8311,"MEAN_ANOMALY":268.3057,"EPHEMERIS_TYPE":0,"CLASSIFICATION_TYPE":"U","NORAD_CAT_ID":55158,"ELEMENT_SET_NO":999,"REV_AT_EPOCH":16335,"BSTAR":-0.0015235000000000001,"MEAN_MOTION_DOT":-5.27e-06,"MEAN_MOTION_DDOT":0.0},{"OBJECT_NAME":"ONEWEB-0618","OBJECT_ID":"2023-004V","EPOCH":"2026-05-29T01:51:48.216096","MEAN_MOTION":15.12977913,"ECCENTRICITY":0.0012989,"INCLINATION":86.9107,"RA_OF_ASC_NODE":185.3912,"ARG_OF_PERICENTER":17.8323,"MEAN_ANOMALY":342.337,"EPHEMERIS_TYPE":0,"CLASSIFICATION_TYPE":"U","NORAD_CAT_ID":55159,"ELEMENT_SET_NO":999,"REV_AT_EPOCH":17937,"BSTAR":0.00027303,"MEAN_MOTION_DOT":4.856e-05,"MEAN_MOTION_DDOT":0.0},{"OBJECT_NAME":"ONEWEB-0619","OBJECT_ID":"2023-004W","EPOCH":"2026-05-29T00:56:25.572768","MEAN_MOTION":13.17649171,"ECCENTRICITY":0.0002211,"INCLINATION":87.9159,"RA_OF_ASC_NODE":9.655,"ARG_OF_PERICENTER":79.8438,"MEAN_ANOMALY":280.2943,"EPHEMERIS_TYPE":0,"CLASSIFICATION_TYPE":"U","NORAD_CAT_ID":55160,"ELEMENT_SET_NO":999,"REV_AT_EPOCH":16507,"BSTAR":0.00018364,"MEAN_MOTION_DOT":8.4e-07,"MEAN_MOTION_DDOT":0.0},{"OBJECT_NAME":"ONEWEB-0620","OBJECT_ID":"2023-004X","EPOCH":"2026-05-28T16:22:50.808000","MEAN_MOTION":13.11416749,"ECCENTRICITY":0.0001623,"INCLINATION":87.8906,"RA_OF_ASC_NODE":24.9584,"ARG_OF_PERICENTER":89.9923,"MEAN_ANOMALY":270.1391,"EPHEMERIS_TYPE":0,"CLASSIFICATION_TYPE":"U","NORAD_CAT_ID":55161,"ELEMENT_SET_NO":999,"REV_AT_EPOCH":16327,"BSTAR":-0.0015766,"MEAN_MOTION_DOT":-5.46e-06,"MEAN_MOTION_DDOT":0.0},{"OBJECT_NAME":"ONEWEB-0621","OBJECT_ID":"2023-004Y","EPOCH":"2026-05-29T04:01:07.635072","MEAN_MOTION":13.11418328,"ECCENTRICITY":0.0002007,"INCLINATION":87.892,"RA_OF_ASC_NODE":24.8488,"ARG_OF_PERICENTER":85.1377,"MEAN_ANOMALY":274.998,"EPHEMERIS_TYPE":0,"CLASSIFICATION_TYPE":"U","NORAD_CAT_ID":55162,"ELEMENT_SET_NO":999,"REV_AT_EPOCH":16331,"BSTAR":0.00070937,"MEAN_MOTION_DOT":2.64e-06,"MEAN_MOTION_DDOT":0.0},{"OBJECT_NAME":"ONEWEB-0622","OBJECT_ID":"2023-004Z","EPOCH":"2026-05-29T04:08:27.476736","MEAN_MOTION":13.11417603,"ECCENTRICITY":0.0002228,"INCLINATION":87.8916,"RA_OF_ASC_NODE":24.8503,"ARG_OF_PERICENTER":100.2521,"MEAN_ANOMALY":259.8858,"EPHEMERIS_TYPE":0,"CLASSIFICATION_TYPE":"U","NORAD_CAT_ID":55163,"ELEMENT_SET_NO":999,"REV_AT_EPOCH":16330,"BSTAR":0.0012801000000000002,"MEAN_MOTION_DOT":4.66e-06,"MEAN_MOTION_DDOT":0.0},{"OBJECT_NAME":"ONEWEB-0623","OBJECT_ID":"2023-004AA","EPOCH":"2026-05-28T15:42:22.635360","MEAN_MOTION":13.17647481,"ECCENTRICITY":0.0002577,"INCLINATION":87.9146,"RA_OF_ASC_NODE":9.7642,"ARG_OF_PERICENTER":90.9006,"MEAN_ANOMALY":269.2421,"EPHEMERIS_TYPE":0,"CLASSIFICATION_TYPE":"U","NORAD_CAT_ID":55164,"ELEMENT_SET_NO":999,"REV_AT_EPOCH":16501,"BSTAR":-2.195e-05,"MEAN_MOTION_DOT":4e-08,"MEAN_MOTION_DDOT":0.0},{"OBJECT_NAME":"ONEWEB-0624","OBJECT_ID":"2023-004AB","EPOCH":"2026-05-28T23:45:54.698688","MEAN_MOTION":13.12928189,"ECCENTRICITY":0.0001872,"INCLINATION":87.8953,"RA_OF_ASC_NODE":354.4069,"ARG_OF_PERICENTER":88.2845,"MEAN_ANOMALY":271.8499,"EPHEMERIS_TYPE":0,"CLASSIFICATION_TYPE":"U","NORAD_CAT_ID":55165,"ELEMENT_SET_NO":999,"REV_AT_EPOCH":16555,"BSTAR":-0.00070061,"MEAN_MOTION_DOT":-2.41e-06,"MEAN_MOTION_DDOT":0.0},{"OBJECT_NAME":"ONEWEB-0625","OBJECT_ID":"2023-004AC","EPOCH":"2026-05-29T04:13:15.218112","MEAN_MOTION":13.17649751,"ECCENTRICITY":0.0001818,"INCLINATION":87.9152,"RA_OF_ASC_NODE":9.6557,"ARG_OF_PERICENTER":80.2623,"MEAN_ANOMALY":279.8714,"EPHEMERIS_TYPE":0,"CLASSIFICATION_TYPE":"U","NORAD_CAT_ID":55166,"ELEMENT_SET_NO":999,"REV_AT_EPOCH":16507,"BSTAR":4.2998e-05,"MEAN_MOTION_DOT":3e-07,"MEAN_MOTION_DDOT":0.0},{"OBJECT_NAME":"ONEWEB-0626","OBJECT_ID":"2023-004AD","EPOCH":"2026-05-29T02:09:17.876736","MEAN_MOTION":13.17648694,"ECCENTRICITY":0.0001458,"INCLINATION":87.9149,"RA_OF_ASC_NODE":9.6726,"ARG_OF_PERICENTER":94.2017,"MEAN_ANOMALY":265.9281,"EPHEMERIS_TYPE":0,"CLASSIFICATION_TYPE":"U","NORAD_CAT_ID":55167,"ELEMENT_SET_NO":999,"REV_AT_EPOCH":16506,"BSTAR":0.00031957000000000003,"MEAN_MOTION_DOT":1.37e-06,"MEAN_MOTION_DDOT":0.0},{"OBJECT_NAME":"ONEWEB-0627","OBJECT_ID":"2023-004AE","EPOCH":"2026-05-29T01:52:17.599008","MEAN_MOTION":13.17648013,"ECCENTRICITY":0.0002301,"INCLINATION":87.915,"RA_OF_ASC_NODE":9.6749,"ARG_OF_PERICENTER":87.7443,"MEAN_ANOMALY":272.3952,"EPHEMERIS_TYPE":0,"CLASSIFICATION_TYPE":"U","NORAD_CAT_ID":55168,"ELEMENT_SET_NO":999,"REV_AT_EPOCH":16506,"BSTAR":9.2111e-05,"MEAN_MOTION_DOT":4.9e-07,"MEAN_MOTION_DDOT":0.0},{"OBJECT_NAME":"ONEWEB-0628","OBJECT_ID":"2023-004AF","EPOCH":"2026-05-28T23:08:58.034976","MEAN_MOTION":13.12442659,"ECCENTRICITY":0.000248,"INCLINATION":87.8954,"RA_OF_ASC_NODE":354.4762,"ARG_OF_PERICENTER":89.015,"MEAN_ANOMALY":271.1263,"EPHEMERIS_TYPE":0,"CLASSIFICATION_TYPE":"U","NORAD_CAT_ID":55169,"ELEMENT_SET_NO":999,"REV_AT_EPOCH":16551,"BSTAR":0.00016608,"MEAN_MOTION_DOT":7.2e-07,"MEAN_MOTION_DDOT":0.0},{"OBJECT_NAME":"ONEWEB-0629","OBJECT_ID":"2023-004AG","EPOCH":"2026-05-28T23:27:43.553088","MEAN_MOTION":13.17649572,"ECCENTRICITY":0.0002072,"INCLINATION":87.9147,"RA_OF_ASC_NODE":9.6915,"ARG_OF_PERICENTER":80.0265,"MEAN_ANOMALY":280.11,"EPHEMERIS_TYPE":0,"CLASSIFICATION_TYPE":"U","NORAD_CAT_ID":55170,"ELEMENT_SET_NO":999,"REV_AT_EPOCH":16505,"BSTAR":0.00024388000000000003,"MEAN_MOTION_DOT":1.08e-06,"MEAN_MOTION_DDOT":0.0}]