ONEWEB-0599             
1 55155U 23004R   26149.04085163 -.00000178  00000+0 -49245-3 0  9993
2 55155  87.9149   9.6723 0001672  79.0359 281.0960 13.17648441164968
ONEWEB-0614             
1 55156U 23004S   26149.08097623 -.00000132  00000+0 -40868-3 0  9994
2 55156  87.8907  24.8793 0002012  85.0927 275.0430 13.11418623163339
ONEWEB-0616             
1 55157U 23004T   26149.08305847  .00000038  00000+0  64574-4 0  9999
2 55157  87.9151   9.6672 0001691  53.8917 306.2370 13.17649811165189
ONEWEB-0617             
1 55158U 23004U   26149.06910551 -.00000527  00000+0 -15235-2 0  9995
2 55158  87.8913  24.8722 0002096  91.8311 268.3057 13.11416454163356
ONEWEB-0618             
1 55159U 23004V   26149.07764139  .00004856  00000+0  27303-3 0  9993
2 55159  86.9107 185.3912 0012989  17.8323 342.3370 15.12977913179374
ONEWEB-0619             
1 55160U 23004W   26149.03918487  .00000084  00000+0  18364-3 0  9994
2 55160  87.9159   9.6550 0002211  79.8438 280.2943 13.17649171165075
ONEWEB-0620             
1 55161U 23004X   26148.68253250 -.00000546  00000+0 -15766-2 0  9992
2 55161  87.8906  24.9584 0001623  89.9923 270.1391 13.11416749163271
ONEWEB-0621             
1 55162U 23004Y   26149.16744948  .00000264  00000+0  70937-3 0  9993
2 55162  87.8920  24.8488 0002007  85.1377 274.9980 13.11418328163314
ONEWEB-0622             
1 55163U 23004Z   26149.17254024  .00000466  00000+0  12801-2 0  9995
2 55163  87.8916  24.8503 0002228 100.2521 259.8858 13.11417603163303
ONEWEB-0623             
1 55164U 23004AA  26148.65442865  .00000004  00000+0 -21950-4 0  9996
2 55164  87.9146   9.7642 0002577  90.9006 269.2421 13.17647481165012
ONEWEB-0624             
1 55165U 23004AB  26148.99021642 -.00000241  00000+0 -70061-3 0  9990
2 55165  87.8953 354.4069 0001872  88.2845 271.8499 13.12928189165554
ONEWEB-0625             
1 55166U 23004AC  26149.17587058  .00000030  00000+0  42998-4 0  9993
2 55166  87.9152   9.6557 0001818  80.2623 279.8714 13.17649751165079
ONEWEB-0626             
1 55167U 23004AD  26149.08979024  .00000137  00000+0  31957-3 0  9992
2 55167  87.9149   9.6726 0001458  94.2017 265.9281 13.17648694165065
ONEWEB-0627             
1 55168U 23004AE  26149.07798147  .00000049  00000+0  92111-4 0  9999
2 55168  87.9150   9.6749 0002301  87.7443 272.3952 13.17648013165063
ONEWEB-0628             
1 55169U 23004AF  26148.96456059  .00000072  00000+0  16608-3 0  9992
2 55169  87.8954 354.4762 0002480  89.0150 271.1263 13.12442659165514
ONEWEB-0629             
1 55170U 23004AG  26148.97758742  .00000108  00000+0  24388-3 0  9993
2 55170  87.9147   9.6915 0002072  80.0265 280.1100 13.17649572165052
